[{"OBJECT_NAME":"HAWK-2A","OBJECT_ID":"2021-006CW","EPOCH":"2026-03-09T16:18:25.817472","MEAN_MOTION":15.33304498,"ECCENTRICITY":0.00064498,"INCLINATION":97.2459,"RA_OF_ASC_NODE":115.6184,"ARG_OF_PERICENTER":187.1463,"MEAN_ANOMALY":172.9689,"EPHEMERIS_TYPE":0,"CLASSIFICATION_TYPE":"U","NORAD_CAT_ID":47505,"ELEMENT_SET_NO":999,"REV_AT_EPOCH":28424,"BSTAR":0.0002543136,"MEAN_MOTION_DOT":8.113e-5,"MEAN_MOTION_DDOT":0},{"OBJECT_NAME":"STARLINK-35473","OBJECT_ID":"2025-225AD","EPOCH":"2026-03-09T13:12:33.519744","MEAN_MOTION":15.30175812,"ECCENTRICITY":0.00012876,"INCLINATION":53.158,"RA_OF_ASC_NODE":166.5474,"ARG_OF_PERICENTER":67.5136,"MEAN_ANOMALY":292.6001,"EPHEMERIS_TYPE":0,"CLASSIFICATION_TYPE":"U","NORAD_CAT_ID":65937,"ELEMENT_SET_NO":999,"REV_AT_EPOCH":2349,"BSTAR":0.00069852149,"MEAN_MOTION_DOT":0.0002037,"MEAN_MOTION_DDOT":0}]
